[{"OBJECT_NAME":"FORTE","OBJECT_ID":"1997-047A","EPOCH":"2026-03-09T21:41:12.798240","MEAN_MOTION":14.27898785,"ECCENTRICITY":0.00196357,"INCLINATION":69.9517,"RA_OF_ASC_NODE":238.2652,"ARG_OF_PERICENTER":49.0734,"MEAN_ANOMALY":311.2084,"EPHEMERIS_TYPE":0,"CLASSIFICATION_TYPE":"U","NORAD_CAT_ID":24920,"ELEMENT_SET_NO":999,"REV_AT_EPOCH":48451,"BSTAR":0.0001374801,"MEAN_MOTION_DOT":2.83e-6,"MEAN_MOTION_DDOT":0},{"OBJECT_NAME":"COSMOS 1275 DEB","OBJECT_ID":"1981-053EU","EPOCH":"2026-03-09T17:48:29.278656","MEAN_MOTION":14.20166241,"ECCENTRICITY":0.00430784,"INCLINATION":82.9187,"RA_OF_ASC_NODE":341.7005,"ARG_OF_PERICENTER":305.2597,"MEAN_ANOMALY":117.4738,"EPHEMERIS_TYPE":0,"CLASSIFICATION_TYPE":"U","NORAD_CAT_ID":13022,"ELEMENT_SET_NO":999,"REV_AT_EPOCH":27133,"BSTAR":0.00078234913,"MEAN_MOTION_DOT":1.7e-5,"MEAN_MOTION_DDOT":0}]
